{"type": "FeatureCollection", "features": [ {"type": "Feature", "properties": {"norad_id": 39781, "name": "IRIDIUM 33 DEB", "group": "iridium-33-debris", "lat": -51.56915410404196, "lon": 76.62216269503853, "alt_km": 705.3445742508729, "timestamp": "2025-12-27T03:58:44.532999+00:00", "meta": {"OBJECT_NAME": "IRIDIUM 33 DEB", "OBJECT_ID": "1997-051AAN", "EPOCH": "2025-12-26T00:09:41.273280", "MEAN_MOTION": 14.20964815, "ECCENTRICITY": 0.01723668, "INCLINATION": 86.3698, "RA_OF_ASC_NODE": 252.511, "ARG_OF_PERICENTER": 230.4954, "MEAN_ANOMALY": 195.4493, "EPHEMERIS_TYPE": 0, "CLASSIFICATION_TYPE": "U", "NORAD_CAT_ID": 39781, "ELEMENT_SET_NO": 999, "REV_AT_EPOCH": 8295, "BSTAR": 0.0048537069, "MEAN_MOTION_DOT": 0.00012243, "MEAN_MOTION_DDOT": 0}, "tle": {"line1": "1 39781U 97051AAN 25360.00672770  .00012243  00000+0  48537-2 0  9995", "line2": "2 39781  86.3698 252.5110 0172366 230.4954 195.4493 14.20964815 82957"}}, "geometry": {"type": "Point", "coordinates": [76.62216269503853, -51.56915410404196]}}, {"type": "Feature", "properties": {"norad_id": 40996, "name": "IRIDIUM 33 DEB", "group": "iridium-33-debris", "lat": 15.108630075510698, "lon": -4.3483628572059425, "alt_km": 569.397416677135, "timestamp": "2025-12-27T03:58:44.533008+00:00", "meta": {"OBJECT_NAME": "IRIDIUM 33 DEB", "OBJECT_ID": "1997-051ABJ", "EPOCH": "2025-12-25T10:52:55.970112", "MEAN_MOTION": 14.97048042, "ECCENTRICITY": 0.0010436, "INCLINATION": 86.3519, "RA_OF_ASC_NODE": 355.4655, "ARG_OF_PERICENTER": 27.9702, "MEAN_ANOMALY": 124.5027, "EPHEMERIS_TYPE": 0, "CLASSIFICATION_TYPE": "U", "NORAD_CAT_ID": 40996, "ELEMENT_SET_NO": 999, "REV_AT_EPOCH": 62678, "BSTAR": 0.0031302, "MEAN_MOTION_DOT": 0.00036257, "MEAN_MOTION_DDOT": 0}, "tle": {"line1": "1 40996U 97051ABJ 25359.45342558  .00036257  00000+0  31302-2 0  9993", "line2": "2 40996  86.3519 355.4655 0010436  27.9702 124.5027 14.97048042626785"}}, "geometry": {"type": "Point", "coordinates": [-4.3483628572059425, 15.108630075510698]}}, {"type": "Feature", "properties": {"norad_id": 40998, "name": "IRIDIUM 33 DEB", "group": "iridium-33-debris", "lat": -44.37760637601384, "lon": 43.94209787172501, "alt_km": 748.2319192177729, "timestamp": "2025-12-27T03:58:44.533017+00:00", "meta": {"OBJECT_NAME": "IRIDIUM 33 DEB", "OBJECT_ID": "1997-051ABL", "EPOCH": "2025-12-26T10:09:43.353216", "MEAN_MOTION": 14.4513968, "ECCENTRICITY": 0.0008602, "INCLINATION": 86.3812, "RA_OF_ASC_NODE": 47.8096, "ARG_OF_PERICENTER": 47.0142, "MEAN_ANOMALY": 8.9419, "EPHEMERIS_TYPE": 0, "CLASSIFICATION_TYPE": "U", "NORAD_CAT_ID": 40998, "ELEMENT_SET_NO": 999, "REV_AT_EPOCH": 6879, "BSTAR": 0.00044303, "MEAN_MOTION_DOT": 1.57e-05, "MEAN_MOTION_DDOT": 0}, "tle": {"line1": "1 40998U 97051ABL 25360.42341844  .00001570  00000+0  44303-3 0  9997", "line2": "2 40998  86.3812  47.8096 0008602  47.0142   8.9419 14.45139680 68790"}}, "geometry": {"type": "Point", "coordinates": [43.94209787172501, -44.37760637601384]}}, {"type": "Feature", "properties": {"norad_id": 46435, "name": "IRIDIUM 33 DEB", "group": "iridium-33-debris", "lat": -80.1358522465707, "lon": 29.693680610760758, "alt_km": 662.5154502710293, "timestamp": "2025-12-27T03:58:44.533026+00:00", "meta": {"OBJECT_NAME": "IRIDIUM 33 DEB", "OBJECT_ID": "1997-051ABN", "EPOCH": "2025-12-26T18:27:22.553856", "MEAN_MOTION": 14.33156689, "ECCENTRICITY": 0.0205339, "INCLINATION": 86.2831, "RA_OF_ASC_NODE": 187.9117, "ARG_OF_PERICENTER": 230.5331, "MEAN_ANOMALY": 143.214, "EPHEMERIS_TYPE": 0, "CLASSIFICATION_TYPE": "U", "NORAD_CAT_ID": 46435, "ELEMENT_SET_NO": 999, "REV_AT_EPOCH": 8117, "BSTAR": 0.01081, "MEAN_MOTION_DOT": 0.00037708, "MEAN_MOTION_DDOT": 0}, "tle": {"line1": "1 46435U 97051ABN 25360.76901104  .00037708  00000+0  10810-1 0  9993", "line2": "2 46435  86.2831 187.9117 0205339 230.5331 143.2140 14.33156689 81173"}}, "geometry": {"type": "Point", "coordinates": [29.693680610760758, -80.1358522465707]}}, {"type": "Feature", "properties": {"norad_id": 46734, "name": "IRIDIUM 33 DEB", "group": "iridium-33-debris", "lat": -28.973536208156386, "lon": 178.60244045715265, "alt_km": 752.0102617744396, "timestamp": "2025-12-27T03:58:44.533036+00:00", "meta": {"OBJECT_NAME": "IRIDIUM 33 DEB", "OBJECT_ID": "1997-051ABR", "EPOCH": "2025-12-26T17:50:24.765216", "MEAN_MOTION": 14.41977609, "ECCENTRICITY": 0.0037286, "INCLINATION": 86.2643, "RA_OF_ASC_NODE": 356.7146, "ARG_OF_PERICENTER": 287.6839, "MEAN_ANOMALY": 250.0616, "EPHEMERIS_TYPE": 0, "CLASSIFICATION_TYPE": "U", "NORAD_CAT_ID": 46734, "ELEMENT_SET_NO": 999, "REV_AT_EPOCH": 63212, "BSTAR": 0.0011195, "MEAN_MOTION_DOT": 3.719e-05, "MEAN_MOTION_DDOT": 0}, "tle": {"line1": "1 46734U 97051ABR 25360.74334219  .00003719  00000+0  11195-2 0  9993", "line2": "2 46734  86.2643 356.7146 0037286 287.6839 250.0616 14.41977609632128"}}, "geometry": {"type": "Point", "coordinates": [178.60244045715265, -28.973536208156386]}}, {"type": "Feature", "properties": {"norad_id": 46965, "name": "IRIDIUM 33 DEB", "group": "iridium-33-debris", "lat": -41.5560100424108, "lon": 157.5550441364739, "alt_km": 692.5309095039183, "timestamp": "2025-12-27T03:58:44.533045+00:00", "meta": {"OBJECT_NAME": "IRIDIUM 33 DEB", "OBJECT_ID": "1997-051ABX", "EPOCH": "2025-12-23T05:18:49.392864", "MEAN_MOTION": 14.60370511, "ECCENTRICITY": 0.00170224, "INCLINATION": 86.3362, "RA_OF_ASC_NODE": 336.0473, "ARG_OF_PERICENTER": 295.0187, "MEAN_ANOMALY": 82.9345, "EPHEMERIS_TYPE": 0, "CLASSIFICATION_TYPE": "U", "NORAD_CAT_ID": 46965, "ELEMENT_SET_NO": 999, "REV_AT_EPOCH": 62421, "BSTAR": 0.00084803208, "MEAN_MOTION_DOT": 4.13e-05, "MEAN_MOTION_DDOT": 0}, "tle": {"line1": "1 46965U 97051ABX 25357.22140501  .00004130  00000+0  84803-3 0  9992", "line2": "2 46965  86.3362 336.0473 0017022 295.0187  82.9345 14.60370511624214"}}, "geometry": {"type": "Point", "coordinates": [157.5550441364739, -41.5560100424108]}}, {"type": "Feature", "properties": {"norad_id": 46971, "name": "IRIDIUM 33 DEB", "group": "iridium-33-debris", "lat": 62.867196122060164, "lon": 139.15046962800287, "alt_km": 565.7853362096339, "timestamp": "2025-12-27T03:58:44.533054+00:00", "meta": {"OBJECT_NAME": "IRIDIUM 33 DEB", "OBJECT_ID": "1997-051ACD", "EPOCH": "2025-12-18T04:46:20.926848", "MEAN_MOTION": 14.98336604, "ECCENTRICITY": 0.00026432, "INCLINATION": 86.3383, "RA_OF_ASC_NODE": 330.5483, "ARG_OF_PERICENTER": 282.6501, "MEAN_ANOMALY": 90.914, "EPHEMERIS_TYPE": 0, "CLASSIFICATION_TYPE": "U", "NORAD_CAT_ID": 46971, "ELEMENT_SET_NO": 999, "REV_AT_EPOCH": 64312, "BSTAR": 0.0022892837, "MEAN_MOTION_DOT": 0.00027356, "MEAN_MOTION_DDOT": 0}, "tle": {"line1": "1 46971U 97051ACD 25352.19885332  .00027356  00000+0  22893-2 0  9993", "line2": "2 46971  86.3383 330.5483 0002643 282.6501  90.9140 14.98336604643128"}}, "geometry": {"type": "Point", "coordinates": [139.15046962800287, 62.867196122060164]}}, {"type": "Feature", "properties": {"norad_id": 46972, "name": "IRIDIUM 33 DEB", "group": "iridium-33-debris", "lat": -40.42410416449856, "lon": 30.107122416410913, "alt_km": 732.1004048707591, "timestamp": "2025-12-27T03:58:44.533063+00:00", "meta": {"OBJECT_NAME": "IRIDIUM 33 DEB", "OBJECT_ID": "1997-051ACE", "EPOCH": "2025-12-24T20:41:33.679968", "MEAN_MOTION": 14.50725222, "ECCENTRICITY": 0.00114655, "INCLINATION": 86.386, "RA_OF_ASC_NODE": 34.1849, "ARG_OF_PERICENTER": 73.1922, "MEAN_ANOMALY": 103.3991, "EPHEMERIS_TYPE": 0, "CLASSIFICATION_TYPE": "U", "NORAD_CAT_ID": 46972, "ELEMENT_SET_NO": 999, "REV_AT_EPOCH": 61748, "BSTAR": 0.00047832722, "MEAN_MOTION_DOT": 1.902e-05, "MEAN_MOTION_DDOT": 0}, "tle": {"line1": "1 46972U 97051ACE 25358.86219537  .00001902  00000+0  47833-3 0  9993", "line2": "2 46972  86.3860  34.1849 0011465  73.1922 103.3991 14.50725222617483"}}, "geometry": {"type": "Point", "coordinates": [30.107122416410913, -40.42410416449856]}}, {"type": "Feature", "properties": {"norad_id": 46974, "name": "IRIDIUM 33 DEB", "group": "iridium-33-debris", "lat": -19.574523058899526, "lon": -79.70417880623398, "alt_km": 712.9432323729843, "timestamp": "2025-12-27T03:58:44.533072+00:00", "meta": {"OBJECT_NAME": "IRIDIUM 33 DEB", "OBJECT_ID": "1997-051ACG", "EPOCH": "2025-12-26T00:28:10.096320", "MEAN_MOTION": 14.44719321, "ECCENTRICITY": 0.00952802, "INCLINATION": 86.2981, "RA_OF_ASC_NODE": 99.4774, "ARG_OF_PERICENTER": 144.0195, "MEAN_ANOMALY": 216.7473, "EPHEMERIS_TYPE": 0, "CLASSIFICATION_TYPE": "U", "NORAD_CAT_ID": 46974, "ELEMENT_SET_NO": 999, "REV_AT_EPOCH": 57700, "BSTAR": 0.0033998719, "MEAN_MOTION_DOT": 0.00012499, "MEAN_MOTION_DDOT": 0}, "tle": {"line1": "1 46974U 97051ACG 25360.01956130  .00012499  00000+0  33999-2 0  9992", "line2": "2 46974  86.2981  99.4774 0095280 144.0195 216.7473 14.44719321577009"}}, "geometry": {"type": "Point", "coordinates": [-79.70417880623398, -19.574523058899526]}}, {"type": "Feature", "properties": {"norad_id": 46979, "name": "IRIDIUM 33 DEB", "group": "iridium-33-debris", "lat": 44.431215422037674, "lon": 45.44887552353632, "alt_km": 604.3492490234466, "timestamp": "2025-12-27T03:58:44.533083+00:00", "meta": {"OBJECT_NAME": "IRIDIUM 33 DEB", "OBJECT_ID": "1997-051ACM", "EPOCH": "2025-12-24T20:59:38.183136", "MEAN_MOTION": 14.90364123, "ECCENTRICITY": 0.002819, "INCLINATION": 86.3328, "RA_OF_ASC_NODE": 42.91, "ARG_OF_PERICENTER": 179.7106, "MEAN_ANOMALY": 180.4142, "EPHEMERIS_TYPE": 0, "CLASSIFICATION_TYPE": "U", "NORAD_CAT_ID": 46979, "ELEMENT_SET_NO": 999, "REV_AT_EPOCH": 35609, "BSTAR": 0.0040991, "MEAN_MOTION_DOT": 0.00040379, "MEAN_MOTION_DDOT": 0}, "tle": {"line1": "1 46979U 97051ACM 25358.87474749  .00040379  00000+0  40991-2 0  9997", "line2": "2 46979  86.3328  42.9100 0028190 179.7106 180.4142 14.90364123356090"}}, "geometry": {"type": "Point", "coordinates": [45.44887552353632, 44.431215422037674]}}]}